FTXX99 XXXX 131100
TAF COR MGGT 131141Z 1312/1412 36010KT 9999 SCT016 SCT080 TX26/1320Z TN16/1312Z
     BECMG 1314/1316 36014KT FEW018
      TEMPO 1320/1406 8000 TSRA SCT018TCU FEW025CB
     BECMG 1401/1403 36010KT BKN016
      TEMPO 1406/1412 RADZ BKN080=