TAF OIZC 131130Z 1312/1418 11004MPS 4000 HZ NSC
           TEMPO 1312/1317 12008MPS FEW020TCU SCT025 BKN070
         BECMG 1403/1405 7000 NSC
          TEMPO 1408/1415 12009MPS 4000 SA NSC