TAF AMD SARP 131251Z 1313/1412 05005KT CAVOK TX28/1318Z TN15/1410Z
PROB30 1407/1411 5000 BR NSC