METAR CYUX 290000Z 08027G33KT 1/8SM -SN +BLSN VV001 M13/M15 A2954