SPECI EDDH 282350Z 07004KT 1700 -SN FEW004 BKN005 00/M00 Q0996 RESN TEMPO SN BKN004