SPECI EFHK 290020Z 32003KT 9999 R04R/0800N R15/P1500N R22L/P1500N R04L/P1500N MIFG NSC M08/M09 Q1015 NOSIG