SPECI EHAK 282355Z AUTO 33009KT 9999 DZ FEW006/// SCT011/// BKN025/// 04/02 Q0998 W///H///