SPECI EHJR 282355Z AUTO 29012KT //// // ///////// 05/02 Q1001 RE// W06/H12