SPECI EKCH 282350Z 09018G28KT CAVOK 01/M03 Q1005 R04L/710166 R04R/710169 R12/710177 NOSIG