SPECI ENFB 282350Z AUTO 12014KT //// FEW052/// 04/M08 Q1009 W///S5