SPECI FALE 290006Z VRB01KT 0200 R24/0275D R06/0650D FG VV002 19/18 Q1010 NOSIG