METAR UAAA 290000Z 13003MPS 4500 BR SCT050 BKN100 05/04 Q1016 R88/CLRD65 NOSIG