METAR UIBB 290000Z 25005MPS 220V280 9999 SCT033 M01/M07 Q1018 R30/811050 NOSIG