METAR USRR 290000Z 09008MPS 0900 R07/1000 BLSN VV019 M12/M14 Q1004 R07/451045 TEMPO 0700 +SN BLSN