SPECI USRR 290020Z 09008MPS 0400 R07/0450D BLSN VV019 M12/M14 Q1004 R/SNOCLO TEMPO 0500 +SN BLSN