METAR VTUO 290000Z 22003KT 190V360 2000 BR FEW035 25/25 Q1011 A2987 BECMG FM0100 3000 BR