FTXX99 XXXX 131700
TAF DAAV 131700Z 1318/1418 02011KT 9999 FEW023 SCT200
  PROB30 TEMPO 1318/1320 FEW023TCU
 BECMG 1320/1322 26008KT PROB30
  TEMPO 1401/1408 2000 BR BKN010
 BECMG 1410/1412 32012KT
  TEMPO 1411/1418 FEW023TCU=