FTXX99 XXXX 131100
TAF SARP 131100Z 1312/1412 05005KT CAVOK TX28/1318Z TN15/1410Z
     PROB30 1407/1411 5000 BR NSC=