SPECI COR EDDH 290020Z VRB02KT 1500 SN FEW003 BKN005 00/M00 Q0996 TEMPO NSW BKN004