METAR SBBR 250000Z 32003KT 290V350 9999 VCTS //////CB 20/19 Q1017