METAR ZSPD 290000Z 13003MPS 0800 R17L/P2000 R16R/0600N R17R/1600U R16L/0900U FG BKN002 13/13 Q1018 BECMG TL0130 3000 BR SCT004 BKN020