METAR CYEK 290000Z AUTO 29020G28KT M1/4SM +SN VV006 M24/M26 A2962