SPECI EDDP 290020Z 21008KT 180V240 9999 FEW028 BKN060 07/06 Q0996 BECMG 25015G25KT