SPECI EKRK 290020Z AUTO 09017G27KT 9999NDV OVC100/// 00/M03 Q1004 R99/210067 R99/210081