SPECI ESMS 290020Z 09022KT CAVOK 01/M03 Q1004 R88/09//95