SPECI USTR 290030Z 35001MPS 1100 0900N R21/1900 +SHSN VV003 M02/M03 Q0996 R21/590742 TEMPO 0500 +SHSN VV002