METAR WSSS 290000Z VRB02KT 7000 FEW018TCU BKN150 27/26 Q1011 TEMPO FM0130 4500 RA