METAR NTAA 290000Z 25005KT 9999 FEW026 SCT043 32/24 Q1012 WS R04 NOSIG