METAR URMT 290000Z 09006MPS 0400 0350NE R07/1000D FG VV004 05/05 Q1010 R07/010070 TEMPO 0200 FG OVC001