SPECI EETN 290020Z 24006KT 9999 FEW019 M05/M07 Q1015 R08/0///95 NOSIG