SPECI LTCN 282350Z 11007KT 080V140 4500 SHRA BR SCT030 BKN090 13/11 Q1009 BECMG TL0050 6000 NSW