METAR UBBB 290000Z 35009KT 9999 SCT004 OVC200 07/06 Q1014 R88/CLRD// NOSIG