METAR UKHH 290000Z 07005MPS CAVOK M03/M06 Q1015 R07/0///66 NOSIG